{
  "type": "FeatureCollection",
  "features": [
    {
      "type": "Feature",
      "properties": {
        "norad_id": 36459,
        "name": "COSMOS 2251 DEB",
        "group": "cosmos-2251-debris",
        "lat": 41.994658918310954,
        "lon": -177.34168439331987,
        "alt_km": 723.0486979586958,
        "timestamp": "2025-12-02T21:34:01.668044+00:00",
        "meta_object_name": "COSMOS 2251 DEB",
        "meta_object_id": "1993-036BBJ",
        "meta_epoch": "2025-11-27T21:25:14.011392",
        "meta_mean_motion": 14.2626117,
        "meta_eccentricity": 0.0114133,
        "meta_inclination": 74.0487,
        "meta_ra_of_asc_node": 26.6161,
        "meta_arg_of_pericenter": 126.4072,
        "meta_mean_anomaly": 234.7668,
        "meta_ephemeris_type": 0,
        "meta_classification_type": "U",
        "meta_norad_cat_id": 36459,
        "meta_element_set_no": 999,
        "meta_rev_at_epoch": 7670,
        "meta_bstar": 0.0017749,
        "meta_mean_motion_dot": 4.537e-05,
        "meta_mean_motion_ddot": 0,
        "tle_line1": "1 36459U 93036BBJ 25331.89252328  .00004537  00000+0  17749-2 0  9999",
        "tle_line2": "2 36459  74.0487  26.6161 0114133 126.4072 234.7668 14.26261170 76702"
      },
      "geometry": {
        "type": "Point",
        "coordinates": [
          -177.34168439331987,
          41.994658918310954
        ]
      }
    },
    {
      "type": "Feature",
      "properties": {
        "norad_id": 36470,
        "name": "COSMOS 2251 DEB",
        "group": "cosmos-2251-debris",
        "lat": -37.91369686602797,
        "lon": 107.89344011678568,
        "alt_km": 562.4264591760311,
        "timestamp": "2025-12-02T21:34:01.668055+00:00",
        "meta_object_name": "COSMOS 2251 DEB",
        "meta_object_id": "1993-036BBV",
        "meta_epoch": "2025-12-02T03:03:18.136800",
        "meta_mean_motion": 15.05586615,
        "meta_eccentricity": 0.00218493,
        "meta_inclination": 73.8455,
        "meta_ra_of_asc_node": 276.4446,
        "meta_arg_of_pericenter": 104.1241,
        "meta_mean_anomaly": 256.2378,
        "meta_ephemeris_type": 0,
        "meta_classification_type": "U",
        "meta_norad_cat_id": 36470,
        "meta_element_set_no": 999,
        "meta_rev_at_epoch": 65934,
        "meta_bstar": 0.0040110233,
        "meta_mean_motion_dot": 0.00058582,
        "meta_mean_motion_ddot": 0,
        "tle_line1": "1 36470U 93036BBV 25336.12729325  .00058582  00000+0  40110-2 0  9996",
        "tle_line2": "2 36470  73.8455 276.4446 0021849 104.1241 256.2378 15.05586615659346"
      },
      "geometry": {
        "type": "Point",
        "coordinates": [
          107.89344011678568,
          -37.91369686602797
        ]
      }
    },
    {
      "type": "Feature",
      "properties": {
        "norad_id": 36528,
        "name": "COSMOS 2251 DEB",
        "group": "cosmos-2251-debris",
        "lat": 72.25596920335447,
        "lon": -80.44368256509178,
        "alt_km": 810.193497083681,
        "timestamp": "2025-12-02T21:34:01.668065+00:00",
        "meta_object_name": "COSMOS 2251 DEB",
        "meta_object_id": "1993-036BCN",
        "meta_epoch": "2025-11-28T19:45:32.756256",
        "meta_mean_motion": 14.30521775,
        "meta_eccentricity": 0.00858193,
        "meta_inclination": 74.0168,
        "meta_ra_of_asc_node": 170.5765,
        "meta_arg_of_pericenter": 223.2164,
        "meta_mean_anomaly": 136.2231,
        "meta_ephemeris_type": 0,
        "meta_classification_type": "U",
        "meta_norad_cat_id": 36528,
        "meta_element_set_no": 999,
        "meta_rev_at_epoch": 64228,
        "meta_bstar": 0.00075224171,
        "meta_mean_motion_dot": 2.015e-05,
        "meta_mean_motion_ddot": 0,
        "tle_line1": "1 36528U 93036BCN 25332.82329579  .00002015  00000+0  75224-3 0  9995",
        "tle_line2": "2 36528  74.0168 170.5765 0085819 223.2164 136.2231 14.30521775642289"
      },
      "geometry": {
        "type": "Point",
        "coordinates": [
          -80.44368256509178,
          72.25596920335447
        ]
      }
    },
    {
      "type": "Feature",
      "properties": {
        "norad_id": 36533,
        "name": "COSMOS 2251 DEB",
        "group": "cosmos-2251-debris",
        "lat": -58.47355405816589,
        "lon": 105.4591368549129,
        "alt_km": 699.2409330774735,
        "timestamp": "2025-12-02T21:34:01.668076+00:00",
        "meta_object_name": "COSMOS 2251 DEB",
        "meta_object_id": "1993-036BCT",
        "meta_epoch": "2025-12-02T10:15:35.913600",
        "meta_mean_motion": 14.49752107,
        "meta_eccentricity": 0.0049125,
        "meta_inclination": 74.0095,
        "meta_ra_of_asc_node": 134.2138,
        "meta_arg_of_pericenter": 285.2045,
        "meta_mean_anomaly": 74.3685,
        "meta_ephemeris_type": 0,
        "meta_classification_type": "U",
        "meta_norad_cat_id": 36533,
        "meta_element_set_no": 999,
        "meta_rev_at_epoch": 84335,
        "meta_bstar": 0.0005766,
        "meta_mean_motion_dot": 2.227e-05,
        "meta_mean_motion_ddot": 0,
        "tle_line1": "1 36533U 93036BCT 25336.42749900  .00002227  00000+0  57660-3 0  9994",
        "tle_line2": "2 36533  74.0095 134.2138 0049125 285.2045  74.3685 14.49752107843352"
      },
      "geometry": {
        "type": "Point",
        "coordinates": [
          105.4591368549129,
          -58.47355405816589
        ]
      }
    },
    {
      "type": "Feature",
      "properties": {
        "norad_id": 36539,
        "name": "COSMOS 2251 DEB",
        "group": "cosmos-2251-debris",
        "lat": 15.605194292442233,
        "lon": -110.63841609253915,
        "alt_km": 685.3841676303664,
        "timestamp": "2025-12-02T21:34:01.668086+00:00",
        "meta_object_name": "COSMOS 2251 DEB",
        "meta_object_id": "1993-036BCZ",
        "meta_epoch": "2025-12-02T07:39:14.571360",
        "meta_mean_motion": 14.59176839,
        "meta_eccentricity": 0.0027838,
        "meta_inclination": 74.024,
        "meta_ra_of_asc_node": 75.0561,
        "meta_arg_of_pericenter": 221.66,
        "meta_mean_anomaly": 138.2445,
        "meta_ephemeris_type": 0,
        "meta_classification_type": "U",
        "meta_norad_cat_id": 36539,
        "meta_element_set_no": 999,
        "meta_rev_at_epoch": 83795,
        "meta_bstar": 0.0010777,
        "meta_mean_motion_dot": 5.081e-05,
        "meta_mean_motion_ddot": 0,
        "tle_line1": "1 36539U 93036BCZ 25336.31891865  .00005081  00000+0  10777-2 0  9994",
        "tle_line2": "2 36539  74.0240  75.0561 0027838 221.6600 138.2445 14.59176839837956"
      },
      "geometry": {
        "type": "Point",
        "coordinates": [
          -110.63841609253915,
          15.605194292442233
        ]
      }
    },
    {
      "type": "Feature",
      "properties": {
        "norad_id": 36540,
        "name": "COSMOS 2251 DEB",
        "group": "cosmos-2251-debris",
        "lat": 23.617383696511336,
        "lon": 12.062002744887055,
        "alt_km": 702.2219596516679,
        "timestamp": "2025-12-02T21:34:01.668096+00:00",
        "meta_object_name": "COSMOS 2251 DEB",
        "meta_object_id": "1993-036BDA",
        "meta_epoch": "2025-12-01T21:48:23.136768",
        "meta_mean_motion": 14.58319628,
        "meta_eccentricity": 0.00154365,
        "meta_inclination": 74.0297,
        "meta_ra_of_asc_node": 201.1393,
        "meta_arg_of_pericenter": 271.8628,
        "meta_mean_anomaly": 88.0769,
        "meta_ephemeris_type": 0,
        "meta_classification_type": "U",
        "meta_norad_cat_id": 36540,
        "meta_element_set_no": 999,
        "meta_rev_at_epoch": 85852,
        "meta_bstar": 0.0011841745,
        "meta_mean_motion_dot": 5.462e-05,
        "meta_mean_motion_ddot": 0,
        "tle_line1": "1 36540U 93036BDA 25335.90860112  .00005462  00000+0  11842-2 0  9998",
        "tle_line2": "2 36540  74.0297 201.1393 0015436 271.8628  88.0769 14.58319628858524"
      },
      "geometry": {
        "type": "Point",
        "coordinates": [
          12.062002744887055,
          23.617383696511336
        ]
      }
    },
    {
      "type": "Feature",
      "properties": {
        "norad_id": 36550,
        "name": "COSMOS 2251 DEB",
        "group": "cosmos-2251-debris",
        "lat": 20.747406703979628,
        "lon": -143.23646957750458,
        "alt_km": 827.3789181720031,
        "timestamp": "2025-12-02T21:34:01.668107+00:00",
        "meta_object_name": "COSMOS 2251 DEB",
        "meta_object_id": "1993-036BDL",
        "meta_epoch": "2025-12-02T08:00:24.909696",
        "meta_mean_motion": 14.27149643,
        "meta_eccentricity": 0.007876,
        "meta_inclination": 74.0451,
        "meta_ra_of_asc_node": 211.5637,
        "meta_arg_of_pericenter": 264.4889,
        "meta_mean_anomaly": 94.7272,
        "meta_ephemeris_type": 0,
        "meta_classification_type": "U",
        "meta_norad_cat_id": 36550,
        "meta_element_set_no": 999,
        "meta_rev_at_epoch": 84447,
        "meta_bstar": 0.00078484,
        "meta_mean_motion_dot": 1.953e-05,
        "meta_mean_motion_ddot": 0,
        "tle_line1": "1 36550U 93036BDL 25336.33362164  .00001953  00000+0  78484-3 0  9998",
        "tle_line2": "2 36550  74.0451 211.5637 0078760 264.4889  94.7272 14.27149643844475"
      },
      "geometry": {
        "type": "Point",
        "coordinates": [
          -143.23646957750458,
          20.747406703979628
        ]
      }
    }
  ]
}